STARLINK-36448          
1 67354U 26003W   26021.50002314 -.01794906  00000+0 -10376-1 0  9997
2 67354  42.9984 139.2349 0001391 271.6348  31.6706 15.80544425  3081
STARLINK-36477          
1 67355U 26003X   26021.50002314 -.01786393  00000+0 -10297-1 0  9991
2 67355  42.9984 139.2457 0001637 272.0216  27.1155 15.80588781  3074
STARLINK-36429          
1 67356U 26003Y   26021.50002314 -.01795813  00000+0 -10371-1 0  9992
2 67356  42.9986 139.2403 0001474 276.7153  24.5286 15.80566465  3079
STARLINK-36456          
1 67357U 26003Z   26021.50002314 -.01799327  00000+0 -10432-1 0  9995
2 67357  42.9985 139.2289 0001526 278.5321  27.0458 15.80488212  3089
STARLINK-36466          
1 67358U 26003AA  26021.50002314 -.01817241  00000+0 -10584-1 0  9990
2 67358  42.9985 139.2228 0001543 275.6355  32.3250 15.80419256  3088
STARLINK-36499          
1 67359U 26003AB  26021.50002314 -.01824247  00000+0 -10643-1 0  9991
2 67359  42.9986 139.2174 0001554 276.4063  33.6606 15.80393859  3086
STARLINK-36469          
1 67360U 26003AC  26021.50002314 -.01837725  00000+0 -10766-1 0  9994
2 67360  42.9985 139.2115 0001485 274.4565  37.9526 15.80328504  3083
STARLINK-35306          
1 67361U 26003AD  26021.50002314 -.01832984  00000+0 -10749-1 0  9998
2 67361  42.9983 139.2057 0001607 274.1671  40.3108 15.80298808  3029
STARLINK-36428          
1 67362U 26003AE  26021.50002314 -.01846555  00000+0 -10869-1 0  9991
2 67362  42.9984 139.1997 0001664 277.2227  39.5338 15.80240183  3081
SHIJIAN-29B (SJ-29B)    
1 67403U 25315C   26020.87933189 -.00000054  00000+0  00000+0 0  9992
2 67403   3.0236  99.0073 0000913 318.8104  92.0855  1.00271506   216
STARLINK-36484          
1 67404U 26005A   26020.83335648 -.01385048  55019-3 -39585-2 0  9990
2 67404  43.0011 156.5855 0001768 283.2631  23.0433 15.92369012  2447
STARLINK-36452          
1 67405U 26005B   26020.83335648 -.01396800  55907-3 -39815-2 0  9991
2 67405  43.0012 156.5805 0001803 283.7617  24.5468 15.92421826  2449
