CCSDS_OMM_VERS = 2.0
CREATION_DATE  = 
ORIGINATOR     = 

OBJECT_NAME    = STARLINK-36448
OBJECT_ID      = 2026-003W
CENTER_NAME    = EARTH
REF_FRAME      = TEME
TIME_SYSTEM    = UTC
MEAN_ELEMENT_THEORY = SGP/SGP4

EPOCH          = 2026-01-21T12:00:01.999296
MEAN_MOTION    = 15.80544425
ECCENTRICITY   = .0001391
INCLINATION    = 42.9984
RA_OF_ASC_NODE = 139.2349
ARG_OF_PERICENTER = 271.6348
MEAN_ANOMALY   = 31.6706

EPHEMERIS_TYPE = 0
CLASSIFICATION_TYPE = U
NORAD_CAT_ID   = 67354
ELEMENT_SET_NO = 999
REV_AT_EPOCH   = 308
BSTAR          = -.10376E-1
MEAN_MOTION_DOT = -.1794906E-1
MEAN_MOTION_DDOT = 0

CCSDS_OMM_VERS = 2.0
CREATION_DATE  = 
ORIGINATOR     = 

OBJECT_NAME    = STARLINK-36477
OBJECT_ID      = 2026-003X
CENTER_NAME    = EARTH
REF_FRAME      = TEME
TIME_SYSTEM    = UTC
MEAN_ELEMENT_THEORY = SGP/SGP4

EPOCH          = 2026-01-21T12:00:01.999296
MEAN_MOTION    = 15.80588781
ECCENTRICITY   = .0001637
INCLINATION    = 42.9984
RA_OF_ASC_NODE = 139.2457
ARG_OF_PERICENTER = 272.0216
MEAN_ANOMALY   = 27.1155

EPHEMERIS_TYPE = 0
CLASSIFICATION_TYPE = U
NORAD_CAT_ID   = 67355
ELEMENT_SET_NO = 999
REV_AT_EPOCH   = 307
BSTAR          = -.10297E-1
MEAN_MOTION_DOT = -.1786393E-1
MEAN_MOTION_DDOT = 0

CCSDS_OMM_VERS = 2.0
CREATION_DATE  = 
ORIGINATOR     = 

OBJECT_NAME    = STARLINK-36429
OBJECT_ID      = 2026-003Y
CENTER_NAME    = EARTH
REF_FRAME      = TEME
TIME_SYSTEM    = UTC
MEAN_ELEMENT_THEORY = SGP/SGP4

EPOCH          = 2026-01-21T12:00:01.999296
MEAN_MOTION    = 15.80566465
ECCENTRICITY   = .0001474
INCLINATION    = 42.9986
RA_OF_ASC_NODE = 139.2403
ARG_OF_PERICENTER = 276.7153
MEAN_ANOMALY   = 24.5286

EPHEMERIS_TYPE = 0
CLASSIFICATION_TYPE = U
NORAD_CAT_ID   = 67356
ELEMENT_SET_NO = 999
REV_AT_EPOCH   = 307
BSTAR          = -.10371E-1
MEAN_MOTION_DOT = -.1795813E-1
MEAN_MOTION_DDOT = 0

CCSDS_OMM_VERS = 2.0
CREATION_DATE  = 
ORIGINATOR     = 

OBJECT_NAME    = STARLINK-36456
OBJECT_ID      = 2026-003Z
CENTER_NAME    = EARTH
REF_FRAME      = TEME
TIME_SYSTEM    = UTC
MEAN_ELEMENT_THEORY = SGP/SGP4

EPOCH          = 2026-01-21T12:00:01.999296
MEAN_MOTION    = 15.80488212
ECCENTRICITY   = .0001526
INCLINATION    = 42.9985
RA_OF_ASC_NODE = 139.2289
ARG_OF_PERICENTER = 278.5321
MEAN_ANOMALY   = 27.0458

EPHEMERIS_TYPE = 0
CLASSIFICATION_TYPE = U
NORAD_CAT_ID   = 67357
ELEMENT_SET_NO = 999
REV_AT_EPOCH   = 308
BSTAR          = -.10432E-1
MEAN_MOTION_DOT = -.1799327E-1
MEAN_MOTION_DDOT = 0

CCSDS_OMM_VERS = 2.0
CREATION_DATE  = 
ORIGINATOR     = 

OBJECT_NAME    = STARLINK-36466
OBJECT_ID      = 2026-003AA
CENTER_NAME    = EARTH
REF_FRAME      = TEME
TIME_SYSTEM    = UTC
MEAN_ELEMENT_THEORY = SGP/SGP4

EPOCH          = 2026-01-21T12:00:01.999296
MEAN_MOTION    = 15.80419256
ECCENTRICITY   = .0001543
INCLINATION    = 42.9985
RA_OF_ASC_NODE = 139.2228
ARG_OF_PERICENTER = 275.6355
MEAN_ANOMALY   = 32.3250

EPHEMERIS_TYPE = 0
CLASSIFICATION_TYPE = U
NORAD_CAT_ID   = 67358
ELEMENT_SET_NO = 999
REV_AT_EPOCH   = 308
BSTAR          = -.10584E-1
MEAN_MOTION_DOT = -.1817241E-1
MEAN_MOTION_DDOT = 0

CCSDS_OMM_VERS = 2.0
CREATION_DATE  = 
ORIGINATOR     = 

OBJECT_NAME    = STARLINK-36499
OBJECT_ID      = 2026-003AB
CENTER_NAME    = EARTH
REF_FRAME      = TEME
TIME_SYSTEM    = UTC
MEAN_ELEMENT_THEORY = SGP/SGP4

EPOCH          = 2026-01-21T12:00:01.999296
MEAN_MOTION    = 15.80393859
ECCENTRICITY   = .0001554
INCLINATION    = 42.9986
RA_OF_ASC_NODE = 139.2174
ARG_OF_PERICENTER = 276.4063
MEAN_ANOMALY   = 33.6606

EPHEMERIS_TYPE = 0
CLASSIFICATION_TYPE = U
NORAD_CAT_ID   = 67359
ELEMENT_SET_NO = 999
REV_AT_EPOCH   = 308
BSTAR          = -.10643E-1
MEAN_MOTION_DOT = -.1824247E-1
MEAN_MOTION_DDOT = 0

CCSDS_OMM_VERS = 2.0
CREATION_DATE  = 
ORIGINATOR     = 

OBJECT_NAME    = STARLINK-36469
OBJECT_ID      = 2026-003AC
CENTER_NAME    = EARTH
REF_FRAME      = TEME
TIME_SYSTEM    = UTC
MEAN_ELEMENT_THEORY = SGP/SGP4

EPOCH          = 2026-01-21T12:00:01.999296
MEAN_MOTION    = 15.80328504
ECCENTRICITY   = .0001485
INCLINATION    = 42.9985
RA_OF_ASC_NODE = 139.2115
ARG_OF_PERICENTER = 274.4565
MEAN_ANOMALY   = 37.9526

EPHEMERIS_TYPE = 0
CLASSIFICATION_TYPE = U
NORAD_CAT_ID   = 67360
ELEMENT_SET_NO = 999
REV_AT_EPOCH   = 308
BSTAR          = -.10766E-1
MEAN_MOTION_DOT = -.1837725E-1
MEAN_MOTION_DDOT = 0

CCSDS_OMM_VERS = 2.0
CREATION_DATE  = 
ORIGINATOR     = 

OBJECT_NAME    = STARLINK-35306
OBJECT_ID      = 2026-003AD
CENTER_NAME    = EARTH
REF_FRAME      = TEME
TIME_SYSTEM    = UTC
MEAN_ELEMENT_THEORY = SGP/SGP4

EPOCH          = 2026-01-21T12:00:01.999296
MEAN_MOTION    = 15.80298808
ECCENTRICITY   = .0001607
INCLINATION    = 42.9983
RA_OF_ASC_NODE = 139.2057
ARG_OF_PERICENTER = 274.1671
MEAN_ANOMALY   = 40.3108

EPHEMERIS_TYPE = 0
CLASSIFICATION_TYPE = U
NORAD_CAT_ID   = 67361
ELEMENT_SET_NO = 999
REV_AT_EPOCH   = 302
BSTAR          = -.10749E-1
MEAN_MOTION_DOT = -.1832984E-1
MEAN_MOTION_DDOT = 0

CCSDS_OMM_VERS = 2.0
CREATION_DATE  = 
ORIGINATOR     = 

OBJECT_NAME    = STARLINK-36428
OBJECT_ID      = 2026-003AE
CENTER_NAME    = EARTH
REF_FRAME      = TEME
TIME_SYSTEM    = UTC
MEAN_ELEMENT_THEORY = SGP/SGP4

EPOCH          = 2026-01-21T12:00:01.999296
MEAN_MOTION    = 15.80240183
ECCENTRICITY   = .0001664
INCLINATION    = 42.9984
RA_OF_ASC_NODE = 139.1997
ARG_OF_PERICENTER = 277.2227
MEAN_ANOMALY   = 39.5338

EPHEMERIS_TYPE = 0
CLASSIFICATION_TYPE = U
NORAD_CAT_ID   = 67362
ELEMENT_SET_NO = 999
REV_AT_EPOCH   = 308
BSTAR          = -.10869E-1
MEAN_MOTION_DOT = -.1846555E-1
MEAN_MOTION_DDOT = 0

CCSDS_OMM_VERS = 2.0
CREATION_DATE  = 
ORIGINATOR     = 

OBJECT_NAME    = SHIJIAN-29B (SJ-29B)
OBJECT_ID      = 2025-315C
CENTER_NAME    = EARTH
REF_FRAME      = TEME
TIME_SYSTEM    = UTC
MEAN_ELEMENT_THEORY = SGP/SGP4

EPOCH          = 2026-01-20T21:06:14.275296
MEAN_MOTION    = 1.00271506
ECCENTRICITY   = .00009134
INCLINATION    = 3.0236
RA_OF_ASC_NODE = 99.0073
ARG_OF_PERICENTER = 318.8104
MEAN_ANOMALY   = 92.0855

EPHEMERIS_TYPE = 0
CLASSIFICATION_TYPE = U
NORAD_CAT_ID   = 67403
ELEMENT_SET_NO = 999
REV_AT_EPOCH   = 21
BSTAR          = 0
MEAN_MOTION_DOT = -.54E-6
MEAN_MOTION_DDOT = 0

CCSDS_OMM_VERS = 2.0
CREATION_DATE  = 
ORIGINATOR     = 

OBJECT_NAME    = STARLINK-36484
OBJECT_ID      = 2026-005A
CENTER_NAME    = EARTH
REF_FRAME      = TEME
TIME_SYSTEM    = UTC
MEAN_ELEMENT_THEORY = SGP/SGP4

EPOCH          = 2026-01-20T20:00:01.999872
MEAN_MOTION    = 15.92369012
ECCENTRICITY   = .00017684
INCLINATION    = 43.0011
RA_OF_ASC_NODE = 156.5855
ARG_OF_PERICENTER = 283.2631
MEAN_ANOMALY   = 23.0433

EPHEMERIS_TYPE = 0
CLASSIFICATION_TYPE = U
NORAD_CAT_ID   = 67404
ELEMENT_SET_NO = 999
REV_AT_EPOCH   = 244
BSTAR          = -.39585294E-2
MEAN_MOTION_DOT = -.1385048E-1
MEAN_MOTION_DDOT = .55019377E-3

CCSDS_OMM_VERS = 2.0
CREATION_DATE  = 
ORIGINATOR     = 

OBJECT_NAME    = STARLINK-36452
OBJECT_ID      = 2026-005B
CENTER_NAME    = EARTH
REF_FRAME      = TEME
TIME_SYSTEM    = UTC
MEAN_ELEMENT_THEORY = SGP/SGP4

EPOCH          = 2026-01-20T20:00:01.999872
MEAN_MOTION    = 15.92421826
ECCENTRICITY   = .00018033
INCLINATION    = 43.0012
RA_OF_ASC_NODE = 156.5805
ARG_OF_PERICENTER = 283.7617
MEAN_ANOMALY   = 24.5468

EPHEMERIS_TYPE = 0
CLASSIFICATION_TYPE = U
NORAD_CAT_ID   = 67405
ELEMENT_SET_NO = 999
REV_AT_EPOCH   = 244
BSTAR          = -.39814727E-2
MEAN_MOTION_DOT = -.13968E-1
MEAN_MOTION_DDOT = .5590652E-3

